LEO EXPRESS 3           
1 66687U 25276X   26068.70934124  .00012924  00000+0  62124-3 0  9992
2 66687  97.4301 143.9034 0008989 143.3594 216.8257 15.18911167 15317
FLOCK 4H-15             
1 66718U 25276BE  26068.70846796  .00007584  00000+0  37246-3 0  9997
2 66718  97.4287 143.9241 0004493  23.8137 336.3304 15.18339872 15314
